start=new Date('2021-09-13T00:00:00.000Z').valueOf();
sats=[{"INCLINATION":"53.0548","DECAY_DATE":null,"EPHEMERIS_TYPE":"0","PERIAPSIS":"546.074","ARG_OF_PERICENTER":"84.5522","LAUNCH_DATE":"2021-03-11","MEAN_ANOMALY":"275.5655","OBJECT_ID":"2021-018AP","MEAN_MOTION_DDOT":"0.0000000000000","FILE":"3114195","MEAN_ELEMENT_THEORY":"SGP4","TLE_LINE1":"1 47824U 21018AP  21255.82161260 -.00000633  00000-0 -23607-4 0  9994","RCS_SIZE":"LARGE","REV_AT_EPOCH":"2957","OBJECT_NAME":"STARLINK-2409","PERIOD":"95.592","SITE":"AFETR","APOAPSIS":"548.357","CENTER_NAME":"EARTH","NORAD_CAT_ID":"47824","SEMIMAJOR_AXIS":"6925.351","ECCENTRICITY":"0.00016480","EPOCH":"2021-09-12T19:43:07.328640","OBJECT_TYPE":"PAYLOAD","RA_OF_ASC_NODE":"48.7967","GP_ID":"184601069","TIME_SYSTEM":"UTC","TLE_LINE2":"2 47824  53.0548  48.7967 0001648  84.5522 275.5655 15.06399326 29570","CLASSIFICATION_TYPE":"U","REF_FRAME":"TEME","ELEMENT_SET_NO":"999","COUNTRY_CODE":"US","MEAN_MOTION_DOT":"-0.00000633","BSTAR":"-0.00002360700000","MEAN_MOTION":"15.06399326"},{"CENTER_NAME":"EARTH","NORAD_CAT_ID":"47825","SEMIMAJOR_AXIS":"6925.343","APOAPSIS":"548.643","GP_ID":"184599330","ECCENTRICITY":"0.00020720","RA_OF_ASC_NODE":"48.6855","OBJECT_TYPE":"PAYLOAD","EPOCH":"2021-09-12T20:09:39.607200","REF_FRAME":"TEME","ELEMENT_SET_NO":"999","CLASSIFICATION_TYPE":"U","TIME_SYSTEM":"UTC","TLE_LINE2":"2 47825  53.0549  48.6855 0002072  95.1043 265.0182 15.06401748 29587","BSTAR":"0.00007701700000","MEAN_MOTION":"15.06401748","COUNTRY_CODE":"US","MEAN_MOTION_DOT":"0.00000866","DECAY_DATE":null,"EPHEMERIS_TYPE":"0","PERIAPSIS":"545.773","INCLINATION":"53.0549","OBJECT_ID":"2021-018AQ","MEAN_MOTION_DDOT":"0.0000000000000","MEAN_ANOMALY":"265.0182","LAUNCH_DATE":"2021-03-11","ARG_OF_PERICENTER":"95.1043","MEAN_ELEMENT_THEORY":"SGP4","TLE_LINE1":"1 47825U 21018AQ  21255.84004175  .00000866  00000-0  77017-4 0  9998","RCS_SIZE":"LARGE","FILE":"3114195","SITE":"AFETR","PERIOD":"95.592","REV_AT_EPOCH":"2958","OBJECT_NAME":"STARLINK-2410"},{"MEAN_MOTION_DOT":"-0.00000359","COUNTRY_CODE":"US","BSTAR":"-0.00000518130000","MEAN_MOTION":"15.06399773","TIME_SYSTEM":"UTC","TLE_LINE2":"2 47826  53.0564  48.4155 0001815  83.8158 276.3038 15.06399773 29591","CLASSIFICATION_TYPE":"U","REF_FRAME":"TEME","ELEMENT_SET_NO":"999","ECCENTRICITY":"0.00018150","EPOCH":"2021-09-12T21:39:53.394048","OBJECT_TYPE":"PAYLOAD","RA_OF_ASC_NODE":"48.4155","GP_ID":"184599580","APOAPSIS":"548.471","CENTER_NAME":"EARTH","SEMIMAJOR_AXIS":"6925.349","NORAD_CAT_ID":"47826","REV_AT_EPOCH":"2959","OBJECT_NAME":"STARLINK-2411","SITE":"AFETR","PERIOD":"95.592","FILE":"3114195","TLE_LINE1":"1 47826U 21018AR  21255.90270132 -.00000359  00000-0 -51813-5 0  9990","MEAN_ELEMENT_THEORY":"SGP4","RCS_SIZE":"LARGE","ARG_OF_PERICENTER":"83.8158","LAUNCH_DATE":"2021-03-11","MEAN_ANOMALY":"276.3038","OBJECT_ID":"2021-018AR","MEAN_MOTION_DDOT":"0.0000000000000","INCLINATION":"53.0564","DECAY_DATE":null,"EPHEMERIS_TYPE":"0","PERIAPSIS":"545.957"},{"LAUNCH_DATE":"2021-03-11","ARG_OF_PERICENTER":"101.4659","MEAN_ANOMALY":"258.6498","OBJECT_ID":"2021-018AS","MEAN_MOTION_DDOT":"0.0000000000000","INCLINATION":"53.0574","DECAY_DATE":null,"PERIAPSIS":"546.165","EPHEMERIS_TYPE":"0","REV_AT_EPOCH":"2978","OBJECT_NAME":"STARLINK-2413","SITE":"AFETR","PERIOD":"95.592","FILE":"3114195","TLE_LINE1":"1 47827U 21018AS  21255.86212780  .00001891  00000-0  14582-3 0  9991","MEAN_ELEMENT_THEORY":"SGP4","RCS_SIZE":"LARGE","ECCENTRICITY":"0.00015020","EPOCH":"2021-09-12T20:41:27.841920","OBJECT_TYPE":"PAYLOAD","RA_OF_ASC_NODE":"38.5921","GP_ID":"184600832","APOAPSIS":"548.246","CENTER_NAME":"EARTH","SEMIMAJOR_AXIS":"6925.341","NORAD_CAT_ID":"47827","COUNTRY_CODE":"US","MEAN_MOTION_DOT":"0.00001891","BSTAR":"0.00014582000000","MEAN_MOTION":"15.06402614","TLE_LINE2":"2 47827  53.0574  38.5921 0001502 101.4659 258.6498 15.06402614 29783","TIME_SYSTEM":"UTC","CLASSIFICATION_TYPE":"U","REF_FRAME":"TEME","ELEMENT_SET_NO":"999"},{"GP_ID":"184600569","ECCENTRICITY":"0.00019200","RA_OF_ASC_NODE":"58.4825","OBJECT_TYPE":"PAYLOAD","EPOCH":"2021-09-12T21:17:19.862016","CENTER_NAME":"EARTH","NORAD_CAT_ID":"47828","SEMIMAJOR_AXIS":"6925.351","APOAPSIS":"548.545","BSTAR":"0.00003695600000","MEAN_MOTION":"15.06399345","MEAN_MOTION_DOT":"0.00000269","COUNTRY_CODE":"US","REF_FRAME":"TEME","ELEMENT_SET_NO":"999","CLASSIFICATION_TYPE":"U","TLE_LINE2":"2 47828  53.0563  58.4825 0001920  90.4216 269.6993 15.06399345 29458","TIME_SYSTEM":"UTC","OBJECT_ID":"2021-018AT","MEAN_MOTION_DDOT":"0.0000000000000","MEAN_ANOMALY":"269.6993","LAUNCH_DATE":"2021-03-11","ARG_OF_PERICENTER":"90.4216","DECAY_DATE":null,"EPHEMERIS_TYPE":"0","PERIAPSIS":"545.886","INCLINATION":"53.0563","SITE":"AFETR","PERIOD":"95.592","REV_AT_EPOCH":"2945","OBJECT_NAME":"STARLINK-2415","TLE_LINE1":"1 47828U 21018AT  21255.88703544  .00000269  00000-0  36956-4 0  9995","MEAN_ELEMENT_THEORY":"SGP4","RCS_SIZE":"LARGE","FILE":"3114195"},{"PERIAPSIS":"546.189","EPHEMERIS_TYPE":"0","DECAY_DATE":null,"INCLINATION":"53.0558","MEAN_MOTION_DDOT":"0.0000000000000","OBJECT_ID":"2021-018AU","ARG_OF_PERICENTER":"98.5785","LAUNCH_DATE":"2021-03-11","MEAN_ANOMALY":"261.5375","RCS_SIZE":"LARGE","TLE_LINE1":"1 47829U 21018AU  21255.77277873 -.00000692  00000-0 -27543-4 0  9999","MEAN_ELEMENT_THEORY":"SGP4","FILE":"3114195","PERIOD":"95.593","SITE":"AFETR","OBJECT_NAME":"STARLINK-2416","REV_AT_EPOCH":"2942","NORAD_CAT_ID":"47829","SEMIMAJOR_AXIS":"6925.368","CENTER_NAME":"EARTH","APOAPSIS":"548.277","GP_ID":"184599831","EPOCH":"2021-09-12T18:32:48.082272","OBJECT_TYPE":"PAYLOAD","RA_OF_ASC_NODE":"59.0004","ECCENTRICITY":"0.00015080","ELEMENT_SET_NO":"999","REF_FRAME":"TEME","TLE_LINE2":"2 47829  53.0558  59.0004 0001508  98.5785 261.5375 15.06393685 29424","TIME_SYSTEM":"UTC","CLASSIFICATION_TYPE":"U","MEAN_MOTION":"15.06393685","BSTAR":"-0.00002754300000","MEAN_MOTION_DOT":"-0.00000692","COUNTRY_CODE":"US"},{"MEAN_MOTION_DDOT":"0.0000000000000","OBJECT_ID":"2021-018AV","ARG_OF_PERICENTER":"89.2168","LAUNCH_DATE":"2021-03-11","MEAN_ANOMALY":"270.9029","EPHEMERIS_TYPE":"0","PERIAPSIS":"545.981","DECAY_DATE":null,"INCLINATION":"53.0570","PERIOD":"95.593","SITE":"AFETR","OBJECT_NAME":"STARLINK-2419","REV_AT_EPOCH":"2944","RCS_SIZE":"MEDIUM","TLE_LINE1":"1 47830U 21018AV  21255.90178596 -.00000952  00000-0 -45037-4 0  9995","MEAN_ELEMENT_THEORY":"SGP4","FILE":"3114195","GP_ID":"184600081","EPOCH":"2021-09-12T21:38:34.306944","RA_OF_ASC_NODE":"58.4158","OBJECT_TYPE":"PAYLOAD","ECCENTRICITY":"0.00018170","SEMIMAJOR_AXIS":"6925.375","NORAD_CAT_ID":"47830","CENTER_NAME":"EARTH","APOAPSIS":"548.498","MEAN_MOTION":"15.06391494","BSTAR":"-0.00004503700000","MEAN_MOTION_DOT":"-0.00000952","COUNTRY_CODE":"US","ELEMENT_SET_NO":"999","REF_FRAME":"TEME","TLE_LINE2":"2 47830  53.0570  58.4158 0001817  89.2168 270.9029 15.06391494 29446","TIME_SYSTEM":"UTC","CLASSIFICATION_TYPE":"U"},{"APOAPSIS":"548.288","CENTER_NAME":"EARTH","SEMIMAJOR_AXIS":"6925.381","NORAD_CAT_ID":"47831","ECCENTRICITY":"0.00015040","EPOCH":"2021-09-12T20:12:56.632032","OBJECT_TYPE":"PAYLOAD","RA_OF_ASC_NODE":"33.6878","GP_ID":"184600332","TIME_SYSTEM":"UTC","TLE_LINE2":"2 47831  53.0531  33.6878 0001504 112.0492 248.0656 15.06389438 29847","CLASSIFICATION_TYPE":"U","REF_FRAME":"TEME","ELEMENT_SET_NO":"999","MEAN_MOTION_DOT":"-0.00000203","COUNTRY_CODE":"US","BSTAR":"0.00000528930000","MEAN_MOTION":"15.06389438","INCLINATION":"53.0531","DECAY_DATE":null,"EPHEMERIS_TYPE":"0","PERIAPSIS":"546.204","ARG_OF_PERICENTER":"112.0492","LAUNCH_DATE":"2021-03-11","MEAN_ANOMALY":"248.0656","OBJECT_ID":"2021-018AW","MEAN_MOTION_DDOT":"0.0000000000000","FILE":"3114195","MEAN_ELEMENT_THEORY":"SGP4","TLE_LINE1":"1 47831U 21018AW  21255.84232213 -.00000203  00000-0  52893-5 0  9993","RCS_SIZE":"LARGE","REV_AT_EPOCH":"2984","OBJECT_NAME":"STARLINK-2420","PERIOD":"95.593","SITE":"AFETR"},{"GP_ID":"184601070","ECCENTRICITY":"0.00019580","RA_OF_ASC_NODE":"48.6123","OBJECT_TYPE":"PAYLOAD","EPOCH":"2021-09-12T20:36:12.291840","CENTER_NAME":"EARTH","SEMIMAJOR_AXIS":"6925.358","NORAD_CAT_ID":"47832","APOAPSIS":"548.579","BSTAR":"-0.00001462900000","MEAN_MOTION":"15.06396917","COUNTRY_CODE":"US","MEAN_MOTION_DOT":"-0.00000500","REF_FRAME":"TEME","ELEMENT_SET_NO":"999","CLASSIFICATION_TYPE":"U","TIME_SYSTEM":"UTC","TLE_LINE2":"2 47832  53.0564  48.6123 0001958  88.5025 271.6189 15.06396917 29589","OBJECT_ID":"2021-018AX","MEAN_MOTION_DDOT":"0.0000000000000","MEAN_ANOMALY":"271.6189","LAUNCH_DATE":"2021-03-11","ARG_OF_PERICENTER":"88.5025","DECAY_DATE":null,"EPHEMERIS_TYPE":"0","PERIAPSIS":"545.867","INCLINATION":"53.0564","PERIOD":"95.592","SITE":"AFETR","REV_AT_EPOCH":"2958","OBJECT_NAME":"STARLINK-2422","TLE_LINE1":"1 47832U 21018AX  21255.85847560 -.00000500  00000-0 -14629-4 0  9997","MEAN_ELEMENT_THEORY":"SGP4","RCS_SIZE":"LARGE","FILE":"3114195"},{"MEAN_ANOMALY":"270.9952","LAUNCH_DATE":"2021-03-11","ARG_OF_PERICENTER":"89.1244","OBJECT_ID":"2021-018AY","MEAN_MOTION_DDOT":"0.0000000000000","INCLINATION":"53.0565","DECAY_DATE":null,"EPHEMERIS_TYPE":"0","PERIAPSIS":"545.966","REV_AT_EPOCH":"2962","OBJECT_NAME":"STARLINK-2423","SITE":"AFETR","PERIOD":"95.592","FILE":"3114195","MEAN_ELEMENT_THEORY":"SGP4","TLE_LINE1":"1 47833U 21018AY  21255.75158152 -.00000182  00000-0  66815-5 0  9999","RCS_SIZE":"LARGE","ECCENTRICITY":"0.00018090","RA_OF_ASC_NODE":"49.0911","OBJECT_TYPE":"PAYLOAD","EPOCH":"2021-09-12T18:02:16.643328","GP_ID":"184599331","APOAPSIS":"548.472","CENTER_NAME":"EARTH","SEMIMAJOR_AXIS":"6925.354","NORAD_CAT_ID":"47833","MEAN_MOTION_DOT":"-0.00000182","COUNTRY_CODE":"US","BSTAR":"0.00000668150000","MEAN_MOTION":"15.06398169","CLASSIFICATION_TYPE":"U","TLE_LINE2":"2 47833  53.0565  49.0911 0001809  89.1244 270.9952 15.06398169 29622","TIME_SYSTEM":"UTC","REF_FRAME":"TEME","ELEMENT_SET_NO":"999"}];
